NORAD_CAT_ID,OBJECT_NAME,OBJECT_TYPE,EPOCH,MEAN_MOTION,ECCENTRICITY,INCLINATION,RA_OF_ASC_NODE,ARG_OF_PERICENTER,MEAN_ANOMALY,BSTAR,MEAN_MOTION_DOT,MEAN_MOTION_DDOT,TLE_LINE0,TLE_LINE1,TLE_LINE2,SEMIMAJOR_AXIS,PERIOD,APOGEE,PERIGEE,DECAYED
53174.0,STARLINK-4205,PAYLOAD,2023-10-26 11:09:57,15.08844927,0.0001488,53.2151,98.2634,85.941,274.1752,-0.00011403,-2.103e-05,0.0,0 STARLINK-4205,1 53174U 22083AU  23299.46525076 -.00002103  00000-0 -11403-3 0  9995,2 53174  53.2151  98.2634 0001488  85.9410 274.1752 15.08844927 71238,6917.865,95.437,540.76,538.701,0.0
53174.0,STARLINK-4205,PAYLOAD,2023-10-26 14:20:43,15.08845715,0.0001502,53.2152,97.6687,91.0199,269.0966,-4.6966e-05,-1.036e-05,0.0,0 STARLINK-4205,1 53174U 22083AU  23299.59773004 -.00001036  00000-0 -46966-4 0  9992,2 53174  53.2152  97.6687 0001502  91.0199 269.0966 15.08845715 70616,6917.863,95.437,540.767,538.689,0.0
53174.0,STARLINK-4205,PAYLOAD,2023-10-26 17:31:24,15.09119514,6.92e-05,53.2152,97.0735,154.1247,205.978,0.0081615,0.00133082,0.0,0 STARLINK-4205,1 53174U 22083AU  23299.73014020  .00133082  00000-0  81615-2 0  9997,2 53174  53.2152  97.0735 0000692 154.1247 205.9780 15.09119514 71276,6917.026,95.42,539.37,538.413,0.0
53174.0,STARLINK-4205,PAYLOAD,2023-10-26 20:42:16,15.08851684,0.0001419,53.2152,96.4793,85.1757,274.9397,0.0002483,3.667e-05,0.0,0 STARLINK-4205,1 53174U 22083AU  23299.86268830  .00003667  00000-0  24830-3 0  9993,2 53174  53.2152  96.4793 0001419  85.1757 274.9397 15.08851684 70651,6917.845,95.437,540.691,538.728,0.0
53174.0,STARLINK-4205,PAYLOAD,2023-10-27 03:03:48,15.08850166,0.0001424,53.2151,95.2897,85.3283,274.7872,0.00014408,2.006e-05,0.0,0 STARLINK-4205,1 53174U 22083AU  23300.12764838  .00002006  00000-0  14408-3 0  9990,2 53174  53.2151  95.2897 0001424  85.3283 274.7872 15.08850166 71330,6917.849,95.437,540.699,538.729,0.0
53174.0,STARLINK-4205,PAYLOAD,2023-10-27 09:25:21,15.08853124,0.0001377,53.2152,94.1003,85.7412,274.3738,0.00027022,4.017e-05,0.0,0 STARLINK-4205,1 53174U 22083AU  23300.39260651  .00004017  00000-0  27022-3 0  9993,2 53174  53.2152  94.1003 0001377  85.7412 274.3738 15.08853124 70730,6917.84,95.437,540.658,538.753,0.0
53174.0,STARLINK-4205,PAYLOAD,2023-10-27 17:22:16,15.08857419,0.0001333,53.2153,92.6134,86.2002,273.9142,0.00055479,8.557e-05,0.0,0 STARLINK-4205,1 53174U 22083AU  23300.72380399  .00008557  00000-0  55479-3 0  9992,2 53174  53.2153  92.6134 0001333  86.2002 273.9142 15.08857419 70782,6917.827,95.436,540.614,538.77,0.0
53174.0,STARLINK-4205,PAYLOAD,2023-10-28 02:54:35,15.08846809,9.23e-05,53.2152,90.8311,85.3992,274.7106,0.00021985,3.214e-05,0.0,0 STARLINK-4205,1 53174U 22083AU  23301.12124398  .00003214  00000-0  21985-3 0  9992,2 53174  53.2152  90.8311 0000923  85.3992 274.7106 15.08846809 71488,6917.86,95.437,540.363,539.086,0.0
53174.0,STARLINK-4205,PAYLOAD,2023-10-28 14:02:18,15.08836568,0.0002233,53.2154,88.7476,87.8927,272.2321,-3.8176e-05,-8.96e-06,0.0,0 STARLINK-4205,1 53174U 22083AU  23301.58493114 -.00000896  00000-0 -38176-4 0  9993,2 53174  53.2154  88.7476 0002233  87.8927 272.2321 15.08836568 70919,6917.891,95.438,541.301,538.211,0.0
53174.0,STARLINK-4205,PAYLOAD,2023-10-28 20:23:50,15.08839462,0.0001413,53.2157,87.5579,97.4299,262.6854,5.6073e-05,6.05e-06,0.0,0 STARLINK-4205,1 53174U 22083AU  23301.84988991  .00000605  00000-0  56073-4 0  9996,2 53174  53.2157  87.5579 0001413  97.4299 262.6854 15.08839462 71596,6917.882,95.438,540.725,538.77,0.0
53174.0,STARLINK-4205,PAYLOAD,2023-10-29 13:53:04,15.08851016,0.0001341,53.2166,84.2867,94.5122,265.6024,0.00065001,0.00010075,0.0,0 STARLINK-4205,1 53174U 22083AU  23302.57852833  .00010075  00000-0  65001-3 0  9994,2 53174  53.2166  84.2867 0001341  94.5122 265.6024 15.08851016 71066,6917.847,95.437,540.639,538.784,0.0
53174.0,STARLINK-4205,PAYLOAD,2023-10-29 18:39:14,15.08864038,0.0001359,53.2165,83.3949,94.0446,266.0702,0.0010376,0.00016275,0.0,0 STARLINK-4205,1 53174U 22083AU  23302.77724538  .00016275  00000-0  10376-2 0  9998,2 53174  53.2165  83.3949 0001359  94.0446 266.0702 15.08864038 71739,6917.807,95.436,540.612,538.732,0.0
53174.0,STARLINK-4205,PAYLOAD,2023-10-30 08:57:42,15.0884882,0.0001586,53.2163,80.7187,88.1748,271.9426,0.00040915,6.231e-05,0.0,0 STARLINK-4205,1 53174U 22083AU  23303.37340843  .00006231  00000-0  40915-3 0  9992,2 53174  53.2163  80.7187 0001586  88.1748 271.9426 15.08848820 71822,6917.853,95.437,540.816,538.621,0.0
53174.0,STARLINK-4205,PAYLOAD,2023-10-30 16:54:38,15.08836313,0.0001363,53.216,79.2321,81.0636,279.0511,0.00017913,2.564e-05,0.0,0 STARLINK-4205,1 53174U 22083AU  23303.70461084  .00002564  00000-0  17913-3 0  9997,2 53174  53.2160  79.2321 0001363  81.0636 279.0511 15.08836313 71876,6917.892,95.438,540.7,538.814,0.0
53174.0,STARLINK-4205,PAYLOAD,2023-10-31 15:10:02,15.08841581,0.0001372,53.216,75.0688,86.2326,273.8823,0.00056205,8.669e-05,0.0,0 STARLINK-4205,1 53174U 22083AU  23304.63197663  .00008669  00000-0  56205-3 0  9998,2 53174  53.2160  75.0688 0001372  86.2326 273.8823 15.08841581 71375,6917.876,95.437,540.69,538.791,0.0
53174.0,STARLINK-4205,PAYLOAD,2023-11-01 11:50:03,15.08841293,0.0001319,53.2156,71.2041,77.8673,282.2467,0.00031663,4.755e-05,0.0,0 STARLINK-4205,1 53174U 22083AU  23305.49309917  .00004755  00000-0  31663-3 0  9993,2 53174  53.2156  71.2041 0001319  77.8673 282.2467 15.08841293 72147,6917.876,95.437,540.654,538.829,0.0
53174.0,STARLINK-4205,PAYLOAD,2023-11-01 15:00:49,15.08846358,0.0001296,53.2162,70.6089,79.422,280.6919,0.00038185,5.795e-05,0.0,0 STARLINK-4205,1 53174U 22083AU  23305.62557739  .00005795  00000-0  38185-3 0  9996,2 53174  53.2162  70.6089 0001296  79.4220 280.6919 15.08846358 71521,6917.861,95.437,540.623,538.829,0.0
53174.0,STARLINK-4205,PAYLOAD,2023-11-02 13:16:13,15.08843497,0.0001471,53.218,66.4471,87.8883,272.2277,0.00027051,4.02e-05,0.0,0 STARLINK-4205,1 53174U 22083AU  23306.55293837  .00004020  00000-0  27051-3 0  9995,2 53174  53.2180  66.4471 0001471  87.8883 272.2277 15.08843497 72304,6917.87,95.437,540.752,538.717,0.0
53174.0,STARLINK-4205,PAYLOAD,2023-11-02 14:51:36,15.08848287,0.0001478,53.2178,66.1485,90.1998,269.9163,0.00024456,3.607e-05,0.0,0 STARLINK-4205,1 53174U 22083AU  23306.61917546  .00003607  00000-0  24456-3 0  9998,2 53174  53.2178  66.1485 0001478  90.1998 269.9163 15.08848287 71672,6917.855,95.437,540.743,538.698,0.0
53174.0,STARLINK-4205,PAYLOAD,2023-11-03 11:31:37,15.08842061,0.0001373,53.2175,62.2824,87.803,272.3119,5.1229e-05,5.28e-06,0.0,0 STARLINK-4205,1 53174U 22083AU  23307.48029777  .00000528  00000-0  51229-4 0  9992,2 53174  53.2175  62.2824 0001373  87.8030 272.3119 15.08842061 72446,6917.874,95.437,540.689,538.789,0.0
53174.0,STARLINK-4205,PAYLOAD,2023-11-03 14:42:23,15.08847023,0.0001336,53.2174,61.6877,84.2018,275.9127,0.00012681,1.731e-05,0.0,0 STARLINK-4205,1 53174U 22083AU  23307.61277547  .00001731  00000-0  12681-3 0  9992,2 53174  53.2174  61.6877 0001336  84.2018 275.9127 15.08847023 71824,6917.859,95.437,540.648,538.8,0.0
53174.0,STARLINK-4205,PAYLOAD,2023-11-04 09:47:01,15.08832426,0.0001545,53.2164,58.1188,92.29,267.8269,-0.00010193,-1.91e-05,0.0,0 STARLINK-4205,1 53174U 22083AU  23308.40766201 -.00001910  00000-0 -10193-3 0  9997,2 53174  53.2164  58.1188 0001545  92.2900 267.8269 15.08832426 72582,6917.904,95.438,540.837,538.7,0.0
53174.0,STARLINK-4205,PAYLOAD,2023-11-04 14:33:11,15.08841069,0.0001352,53.2164,57.2304,85.7919,274.3227,9.2896e-05,1.191e-05,0.0,0 STARLINK-4205,1 53174U 22083AU  23308.60637909  .00001191  00000-0  92896-4 0  9991,2 53174  53.2164  57.2304 0001352  85.7919 274.3227 15.08841069 71977,6917.877,95.437,540.677,538.807,0.0
53174.0,STARLINK-4205,PAYLOAD,2023-11-05 14:23:57,15.08861365,0.0001351,53.2174,52.767,78.9689,281.1456,0.0003295,4.963e-05,0.0,0 STARLINK-4205,1 53174U 22083AU  23309.59996769  .00004963  00000-0  32950-3 0  9996,2 53174  53.2174  52.7670 0001351  78.9689 281.1456 15.08861365 72120,6917.815,95.436,540.615,538.745,0.0
53174.0,STARLINK-4205,PAYLOAD,2023-11-05 23:56:15,15.08858817,0.0001229,53.2172,50.9822,92.1252,267.9881,0.00032075,4.823e-05,0.0,0 STARLINK-4205,1 53174U 22083AU  23309.99740636  .00004823  00000-0  32075-3 0  9993,2 53174  53.2172  50.9822 0001229  92.1252 267.9881 15.08858817 72824,6917.823,95.436,540.538,538.838,0.0
53174.0,STARLINK-4205,PAYLOAD,2023-11-06 11:03:57,15.08854961,0.0001643,53.216,48.9027,92.7879,267.3302,0.00023529,3.46e-05,0.0,0 STARLINK-4205,1 53174U 22083AU  23310.46108563  .00003460  00000-0  23529-3 0  9994,2 53174  53.2160  48.9027 0001643  92.7879 267.3302 15.08854961 72891,6917.835,95.437,540.836,538.563,0.0
53174.0,STARLINK-4205,PAYLOAD,2023-11-06 14:14:47,15.08743985,0.0001197,53.2165,48.3089,82.9294,277.1834,-0.0019448,-0.00031025,0.0,0 STARLINK-4205,1 53174U 22083AU  23310.59360995 -.00031025  00000-0 -19448-2 0  9991,2 53174  53.2165  48.3089 0001197  82.9294 277.1834 15.08743985 72278,6918.174,95.444,540.867,539.211,0.0
53174.0,STARLINK-4205,PAYLOAD,2023-11-06 23:47:07,15.08765826,9.59e-05,53.2171,46.5242,82.0703,278.0397,-0.0011916,-0.00019163,0.0,0 STARLINK-4205,1 53174U 22083AU  23310.99105596 -.00019163  00000-0 -11916-2 0  9990,2 53174  53.2171  46.5242 0000959  82.0703 278.0397 15.08765826 72976,6918.107,95.442,540.636,539.309,0.0
53174.0,STARLINK-4205,PAYLOAD,2023-11-07 12:30:11,15.08831996,9.91e-05,53.218,44.1446,63.3088,296.8005,0.00030879,4.629e-05,0.0,0 STARLINK-4205,1 53174U 22083AU  23311.52096185  .00004629  00000-0  30879-3 0  9992,2 53174  53.2180  44.1446 0000991  63.3088 296.8005 15.08831996 73056,6917.905,95.438,540.455,539.084,0.0
53174.0,STARLINK-4205,PAYLOAD,2023-11-07 14:05:34,15.08839275,0.0001335,53.2171,43.8469,68.5099,291.6035,0.00036533,5.531e-05,0.0,0 STARLINK-4205,1 53174U 22083AU  23311.58719947  .00005531  00000-0  36533-3 0  9992,2 53174  53.2171  43.8469 0001335  68.5099 291.6035 15.08839275 72423,6917.883,95.438,540.671,538.824,0.0
